OBJECT_NAME,OBJECT_ID,EPOCH,MEAN_MOTION,ECCENTRICITY,INCLINATION,RA_OF_ASC_NODE,ARG_OF_PERICENTER,MEAN_ANOMALY,EPHEMERIS_TYPE,CLASSIFICATION_TYPE,NORAD_CAT_ID,ELEMENT_SET_NO,REV_AT_EPOCH,BSTAR,MEAN_MOTION_DOT,MEAN_MOTION_DDOT
ONEWEB-0068,2020-020Y,2026-07-08T23:22:53.504832,13.11415724,.00016358,87.8884,16.7266,88.7217,271.4098,0,U,45446,999,30545,.14660408E-2,.532E-5,0
ONEWEB-0046,2020-020Z,2026-07-08T23:10:52.300704,13.11417909,.00017378,87.8876,16.7326,80.7484,279.3841,0,U,45447,999,30546,.15536824E-2,.563E-5,0
ONEWEB-0063,2020-020AA,2026-07-09T18:11:14.593056,13.11414249,.0001989,87.8886,16.5755,82.8926,277.2428,0,U,45448,999,30565,-.19128E-3,-.55E-6,0
ONEWEB-0019,2020-020AB,2026-07-08T22:58:25.598208,13.11412066,.00018407,87.8881,16.7201,95.9205,264.2133,0,U,45449,999,30539,-.81389315E-3,-.276E-5,0
ONEWEB-0094,2020-020AC,2026-07-09T18:08:37.816800,13.17648031,.000169,87.9145,1.3607,98.0325,262.0998,0,U,45450,999,30928,.87791E-4,.47E-6,0
ONEWEB-0087,2020-020AD,2026-07-09T18:25:29.044128,13.11415685,.0001549,87.8896,16.5496,91.1331,268.9974,0,U,45451,999,30554,-.10046E-2,-.343E-5,0
ONEWEB-0082,2020-020AE,2026-07-09T18:20:36.384000,13.11415177,.0001404,87.8891,16.5651,82.1156,278.0131,0,U,45452,999,30563,-.89266E-3,-.304E-5,0
ONEWEB-0050,2020-020AF,2026-07-09T02:20:20.396256,14.90460637,.0001032,88.9282,230.2349,200.9146,159.2041,0,U,45453,999,34364,.13705899E-3,.1357E-4,0
ONEWEB-0034,2020-020AG,2026-07-08T23:06:11.981088,13.11417720,.00017643,87.8886,16.7339,89.4648,270.6682,0,U,45454,999,30544,.12043188E-2,.44E-5,0
ONEWEB-0060,2020-020AH,2026-07-09T18:09:49.603104,13.11414771,.0000985,87.8879,16.5723,112.0987,248.0246,0,U,45455,999,30550,.95858E-6,.13E-6,0
ONEWEB-0086,2020-020AJ,2026-07-08T23:20:26.870208,13.11416353,.0001476,87.8878,16.7253,113.7224,246.4059,0,U,45456,999,30546,.13210907E-2,.481E-5,0
ONEWEB-0088,2020-020AK,2026-07-08T22:48:52.974432,13.11418591,.00018444,87.8896,16.7040,76.3464,283.7869,0,U,45457,999,30539,-.62961736E-4,-.1E-6,0
ONEWEB-0102,2020-100A,2026-07-09T16:48:14.188608,13.12443866,.0001956,87.8953,346.1976,104.2156,255.9190,0,U,47258,999,26768,-.80087E-3,-.275E-5,0
ONEWEB-0109,2020-100B,2026-07-09T17:00:26.253216,13.12444978,.0001997,87.8962,346.1812,97.7442,262.3914,0,U,47259,999,26751,.9949E-4,.49E-6,0
ONEWEB-0110,2020-100C,2026-07-09T15:49:42.513312,13.12442674,.000172,87.8976,346.1752,104.8819,255.2500,0,U,47260,999,26767,.11415E-2,.423E-5,0
ONEWEB-0111,2020-100D,2026-07-09T16:33:35.879040,13.12443215,.0001725,87.8963,346.1877,95.4095,264.7230,0,U,47261,999,26751,-.10165E-2,-.353E-5,0
ONEWEB-0114,2020-100E,2026-07-08T21:09:55.316736,13.12442572,.00020471,87.8965,346.3462,95.9180,264.2182,0,U,47262,999,26736,.10286296E-2,.383E-5,0
ONEWEB-0117,2020-100F,2026-07-09T17:05:18.887424,13.12443566,.0001851,87.8962,346.1714,96.5906,263.5433,0,U,47263,999,26748,.34872E-3,.138E-5,0
ONEWEB-0118,2020-100G,2026-07-09T16:04:19.530336,13.12441550,.0002051,87.8967,346.1820,89.4104,270.7260,0,U,47264,999,26767,.50939E-3,.196E-5,0
ONEWEB-0119,2020-100H,2026-07-09T16:40:54.981984,13.12442571,.0001864,87.8952,346.1922,95.1502,264.9840,0,U,47265,999,26765,-.11579E-2,-.404E-5,0
ONEWEB-0120,2020-100J,2026-07-09T17:15:16.449696,13.12443624,.0002025,87.8956,346.1888,96.3181,263.8179,0,U,47266,999,26768,.10424E-2,.388E-5,0
ONEWEB-0121,2020-100K,2026-07-08T22:40:10.661376,13.12443326,.00015271,87.8963,346.3308,95.3688,264.7615,0,U,47267,999,26749,.40189807E-4,.27E-6,0
ONEWEB-0122,2020-100L,2026-07-08T22:31:37.752960,13.12445473,.00019266,87.8964,346.3369,100.1600,259.9746,0,U,47268,999,26740,-.44151619E-3,-.146E-5,0
ONEWEB-0123,2020-100M,2026-07-08T22:25:32.171232,13.12443024,.00018966,87.8953,346.3425,92.4971,267.6375,0,U,47269,999,26754,-.95935603E-3,-.332E-5,0
ONEWEB-0124,2020-100N,2026-07-09T16:28:42.771360,13.12442316,.0001725,87.8950,346.1959,93.9916,266.1409,0,U,47270,999,26752,-.99826E-3,-.346E-5,0
ONEWEB-0125,2020-100P,2026-07-09T15:57:00.487008,13.12442056,.0001643,87.8962,346.1859,86.7941,273.3376,0,U,47271,999,26758,.85859E-3,.322E-5,0
ONEWEB-0126,2020-100Q,2026-07-08T22:08:40.299360,13.12442139,.00019478,87.8954,346.3481,94.5078,265.6274,0,U,47272,999,26755,-.11265067E-2,-.393E-5,0
ONEWEB-0127,2020-100R,2026-07-08T19:29:54.102336,13.12442873,.00019818,87.8953,346.3671,96.5027,263.6328,0,U,47273,999,26756,.11958898E-2,.443E-5,0
ONEWEB-0128,2020-100S,2026-07-09T16:09:12.254400,13.12441658,.0001718,87.8955,346.2097,105.7917,254.3401,0,U,47274,999,26769,-.21342E-4,.5E-7,0
ONEWEB-0129,2020-100T,2026-07-09T17:29:42.976032,13.12442724,.0002898,87.8959,346.1747,97.6796,262.4662,0,U,47275,999,26763,.13412E-2,.495E-5,0
